{
  "type": "FeatureCollection",
  "features": [
    {
      "type": "Feature",
      "properties": {
        "norad_id": 29876,
        "name": "FENGYUN 1C DEB",
        "group": "fengyun-1c-debris",
        "lat": -1.6912207172048532,
        "lon": 51.565340241775566,
        "alt_km": 787.6204282870685,
        "timestamp": "2025-12-27T14:26:30.793657+00:00",
        "meta_object_name": "FENGYUN 1C DEB",
        "meta_object_id": "1999-025FW",
        "meta_epoch": "2025-12-27T02:55:34.934304",
        "meta_mean_motion": 14.20306689,
        "meta_eccentricity": 0.00606942,
        "meta_inclination": 98.3313,
        "meta_ra_of_asc_node": 50.8654,
        "meta_arg_of_pericenter": 335.3301,
        "meta_mean_anomaly": 90.855,
        "meta_ephemeris_type": 0,
        "meta_classification_type": "U",
        "meta_norad_cat_id": 29876,
        "meta_element_set_no": 999,
        "meta_rev_at_epoch": 98121,
        "meta_bstar": 0.00016109931,
        "meta_mean_motion_dot": 3.1e-06,
        "meta_mean_motion_ddot": 0,
        "tle_line1": "1 29876U 99025FW  25361.12193211  .00000310  00000+0  16110-3 0  9999",
        "tle_line2": "2 29876  98.3313  50.8654 0060694 335.3301  90.8550 14.20306689981219"
      },
      "geometry": {
        "type": "Point",
        "coordinates": [
          51.565340241775566,
          -1.6912207172048532
        ]
      }
    },
    {
      "type": "Feature",
      "properties": {
        "norad_id": 29877,
        "name": "FENGYUN 1C DEB",
        "group": "fengyun-1c-debris",
        "lat": 77.45626522260821,
        "lon": -131.0339559318909,
        "alt_km": 793.2818596545594,
        "timestamp": "2025-12-27T14:26:30.793668+00:00",
        "meta_object_name": "FENGYUN 1C DEB",
        "meta_object_id": "1999-025FX",
        "meta_epoch": "2025-12-26T23:04:57.327168",
        "meta_mean_motion": 14.24821802,
        "meta_eccentricity": 0.0046507,
        "meta_inclination": 98.5372,
        "meta_ra_of_asc_node": 5.8804,
        "meta_arg_of_pericenter": 176.5729,
        "meta_mean_anomaly": 242.3719,
        "meta_ephemeris_type": 0,
        "meta_classification_type": "U",
        "meta_norad_cat_id": 29877,
        "meta_element_set_no": 999,
        "meta_rev_at_epoch": 98176,
        "meta_bstar": 0.00049042,
        "meta_mean_motion_dot": 1.114e-05,
        "meta_mean_motion_ddot": 0,
        "tle_line1": "1 29877U 99025FX  25360.96177462  .00001114  00000+0  49042-3 0  9994",
        "tle_line2": "2 29877  98.5372   5.8804 0046507 176.5729 242.3719 14.24821802981764"
      },
      "geometry": {
        "type": "Point",
        "coordinates": [
          -131.0339559318909,
          77.45626522260821
        ]
      }
    },
    {
      "type": "Feature",
      "properties": {
        "norad_id": 29878,
        "name": "FENGYUN 1C DEB",
        "group": "fengyun-1c-debris",
        "lat": 69.76180113993809,
        "lon": 153.4501842973371,
        "alt_km": 506.943132605139,
        "timestamp": "2025-12-27T14:26:30.793678+00:00",
        "meta_object_name": "FENGYUN 1C DEB",
        "meta_object_id": "1999-025FY",
        "meta_epoch": "2025-12-26T23:50:49.827264",
        "meta_mean_motion": 15.13203617,
        "meta_eccentricity": 0.00238448,
        "meta_inclination": 96.9479,
        "meta_ra_of_asc_node": 172.2106,
        "meta_arg_of_pericenter": 115.2673,
        "meta_mean_anomaly": 245.1034,
        "meta_ephemeris_type": 0,
        "meta_classification_type": "U",
        "meta_norad_cat_id": 29878,
        "meta_element_set_no": 999,
        "meta_rev_at_epoch": 98863,
        "meta_bstar": 0.0086401433,
        "meta_mean_motion_dot": 0.00157553,
        "meta_mean_motion_ddot": 0,
        "tle_line1": "1 29878U 99025FY  25360.99363226  .00157553  00000+0  86401-2 0  9991",
        "tle_line2": "2 29878  96.9479 172.2106 0023844 115.2673 245.1034 15.13203617988637"
      },
      "geometry": {
        "type": "Point",
        "coordinates": [
          153.4501842973371,
          69.76180113993809
        ]
      }
    },
    {
      "type": "Feature",
      "properties": {
        "norad_id": 29880,
        "name": "FENGYUN 1C DEB",
        "group": "fengyun-1c-debris",
        "lat": 31.990909698217102,
        "lon": 103.64771624044852,
        "alt_km": 901.6789528381032,
        "timestamp": "2025-12-27T14:26:30.793689+00:00",
        "meta_object_name": "FENGYUN 1C DEB",
        "meta_object_id": "1999-025GA",
        "meta_epoch": "2025-12-27T05:51:25.523424",
        "meta_mean_motion": 13.93967088,
        "meta_eccentricity": 0.02324691,
        "meta_inclination": 98.1958,
        "meta_ra_of_asc_node": 278.1651,
        "meta_arg_of_pericenter": 60.9917,
        "meta_mean_anomaly": 89.8571,
        "meta_ephemeris_type": 0,
        "meta_classification_type": "U",
        "meta_norad_cat_id": 29880,
        "meta_element_set_no": 999,
        "meta_rev_at_epoch": 95764,
        "meta_bstar": 0.0015381057,
        "meta_mean_motion_dot": 2.508e-05,
        "meta_mean_motion_ddot": 0,
        "tle_line1": "1 29880U 99025GA  25361.24404541  .00002508  00000+0  15381-2 0  9997",
        "tle_line2": "2 29880  98.1958 278.1651 0232469  60.9917  89.8571 13.93967088957640"
      },
      "geometry": {
        "type": "Point",
        "coordinates": [
          103.64771624044852,
          31.990909698217102
        ]
      }
    },
    {
      "type": "Feature",
      "properties": {
        "norad_id": 29881,
        "name": "FENGYUN 1C DEB",
        "group": "fengyun-1c-debris",
        "lat": -26.97519418153471,
        "lon": 147.69613270660028,
        "alt_km": 1258.82816693132,
        "timestamp": "2025-12-27T14:26:30.793699+00:00",
        "meta_object_name": "FENGYUN 1C DEB",
        "meta_object_id": "1999-025GB",
        "meta_epoch": "2025-12-26T21:38:12.775200",
        "meta_mean_motion": 13.59681184,
        "meta_eccentricity": 0.029341,
        "meta_inclination": 98.7245,
        "meta_ra_of_asc_node": 331.5538,
        "meta_arg_of_pericenter": 34.9467,
        "meta_mean_anomaly": 346.3148,
        "meta_ephemeris_type": 0,
        "meta_classification_type": "U",
        "meta_norad_cat_id": 29881,
        "meta_element_set_no": 999,
        "meta_rev_at_epoch": 93427,
        "meta_bstar": 0.0029924,
        "meta_mean_motion_dot": 2.914e-05,
        "meta_mean_motion_ddot": 0,
        "tle_line1": "1 29881U 99025GB  25360.90153675  .00002914  00000+0  29924-2 0  9998",
        "tle_line2": "2 29881  98.7245 331.5538 0293410  34.9467 346.3148 13.59681184934275"
      },
      "geometry": {
        "type": "Point",
        "coordinates": [
          147.69613270660028,
          -26.97519418153471
        ]
      }
    },
    {
      "type": "Feature",
      "properties": {
        "norad_id": 29884,
        "name": "FENGYUN 1C DEB",
        "group": "fengyun-1c-debris",
        "lat": 17.80011631760275,
        "lon": -140.0565595645275,
        "alt_km": 745.3061503349281,
        "timestamp": "2025-12-27T14:26:30.793709+00:00",
        "meta_object_name": "FENGYUN 1C DEB",
        "meta_object_id": "1999-025GE",
        "meta_epoch": "2025-12-27T02:08:39.086592",
        "meta_mean_motion": 14.40353903,
        "meta_eccentricity": 0.0044239,
        "meta_inclination": 99.6023,
        "meta_ra_of_asc_node": 36.2535,
        "meta_arg_of_pericenter": 96.1106,
        "meta_mean_anomaly": 289.7778,
        "meta_ephemeris_type": 0,
        "meta_classification_type": "U",
        "meta_norad_cat_id": 29884,
        "meta_element_set_no": 999,
        "meta_rev_at_epoch": 98756,
        "meta_bstar": 0.00073146252,
        "meta_mean_motion_dot": 2.295e-05,
        "meta_mean_motion_ddot": 0,
        "tle_line1": "1 29884U 99025GE  25361.08934128  .00002295  00000+0  73146-3 0  9999",
        "tle_line2": "2 29884  99.6023  36.2535 0044239  96.1106 289.7778 14.40353903987566"
      },
      "geometry": {
        "type": "Point",
        "coordinates": [
          -140.0565595645275,
          17.80011631760275
        ]
      }
    },
    {
      "type": "Feature",
      "properties": {
        "norad_id": 29885,
        "name": "FENGYUN 1C DEB",
        "group": "fengyun-1c-debris",
        "lat": 27.863029438698046,
        "lon": -68.79020720292702,
        "alt_km": 849.8739547240775,
        "timestamp": "2025-12-27T14:26:30.793720+00:00",
        "meta_object_name": "FENGYUN 1C DEB",
        "meta_object_id": "1999-025GF",
        "meta_epoch": "2025-12-25T20:09:36.688608",
        "meta_mean_motion": 14.13588077,
        "meta_eccentricity": 0.01190474,
        "meta_inclination": 98.357,
        "meta_ra_of_asc_node": 294.0197,
        "meta_arg_of_pericenter": 126.7056,
        "meta_mean_anomaly": 302.6797,
        "meta_ephemeris_type": 0,
        "meta_classification_type": "U",
        "meta_norad_cat_id": 29885,
        "meta_element_set_no": 999,
        "meta_rev_at_epoch": 97642,
        "meta_bstar": 0.00014595725,
        "meta_mean_motion_dot": 2.55e-06,
        "meta_mean_motion_ddot": 0,
        "tle_line1": "1 29885U 99025GF  25359.84000797  .00000255  00000+0  14596-3 0  9995",
        "tle_line2": "2 29885  98.3570 294.0197 0119047 126.7056 302.6797 14.13588077976423"
      },
      "geometry": {
        "type": "Point",
        "coordinates": [
          -68.79020720292702,
          27.863029438698046
        ]
      }
    }
  ]
}